*******************************************************************************
JPL/HORIZONS             3901 Nanjingdaxue (1958 GQ)       2023-Sep-04 11:26:10
Rec #:    3901 (+COV) Soln.date: 2023-Aug-23_14:33:19   # obs: 5421 (1954-2023)
 
IAU76/J2000 helio. ecliptic osc. elements (au, days, deg., period=Julian yrs):
 
  EPOCH=  2457578.5 ! 2016-Jul-09.00 (TDB)         Residual RMS= .27073
   EC= .2818975553422807   QR= 1.881615011690931   TP= 2458157.0855143988
   OM= 8.552247596922388   W=  231.7112005274964   IN= 12.81688862098966
   A= 2.620259860816649    MA= 225.5517715338924   ADIST= 3.358904709942367
   PER= 4.24155            N= .232373997           ANGMOM= .026716126
   DAN= 2.92252            DDN= 2.05337            L= 239.5583667
   B= -10.0273624          MOID= .89994103         TP= 2018-Feb-07.5855143988
 
Asteroid physical parameters (km, seconds, rotational period in hours):
   GM= n.a.                RAD= 9.5995             ROTPER= 21.4
   H= 12.69                G= .150                 B-V= n.a.
                           ALBEDO= .053            STYP= n.a.

ASTEROID comments: 
1: soln ref.= JPL#55, OCC=0
2: source=ORB
*******************************************************************************


*******************************************************************************
Ephemeris / API_USER Mon Sep  4 11:26:10 2023 Pasadena, USA      / Horizons
*******************************************************************************
Target body name: 3901 Nanjingdaxue (1958 GQ)     {source: JPL#55}
Center body name: Solar System Barycenter (0)     {source: DE441}
Center-site name: BODY CENTER
*******************************************************************************
Start time      : A.D. 2023-Aug-12 00:00:00.0000 TDB
Stop  time      : A.D. 2023-Aug-13 00:00:00.0000 TDB
Step-size       : 2880 minutes
*******************************************************************************
Center geodetic : 0.0, 0.0, 0.0                   {E-lon(deg),Lat(deg),Alt(km)}
Center cylindric: 0.0, 0.0, 0.0                   {E-lon(deg),Dxy(km),Dz(km)}
Center radii    : (undefined)
Small perturbers: Yes                             {source: SB441-N16}
Output units    : KM-S
Calendar mode   : Mixed Julian/Gregorian
Output type     : GEOMETRIC cartesian states
Output format   : 2 (position and velocity)
Reference frame : Ecliptic of J2000.0
*******************************************************************************
Initial IAU76/J2000 heliocentric ecliptic osculating elements (au, days, deg.):
  EPOCH=  2457578.5 ! 2016-Jul-09.00 (TDB)         Residual RMS= .27073        
   EC= .2818975553422807   QR= 1.881615011690931   TP= 2458157.0855143988      
   OM= 8.552247596922388   W=  231.7112005274964   IN= 12.81688862098966       
  Equivalent ICRF heliocentric cartesian coordinates (au, au/d):
   X= 1.443583669917738E-01  Y= 2.599271991733449E+00  Z= 1.890794821282010E+00
  VX=-8.354965521803917E-03 VY=-1.019979889651735E-03 VZ=-4.028902158570167E-04
Asteroid physical parameters (km, seconds, rotational period in hours):        
   GM= n.a.                RAD= 9.5995             ROTPER= 21.4                
   H= 12.69                G= .150                 B-V= n.a.                   
                           ALBEDO= .053            STYP= n.a.                  
*******************************************************************************
JDTDB
   X     Y     Z
   VX    VY    VZ
*******************************************************************************
$$SOE
2460168.500000000 = A.D. 2023-Aug-12 00:00:00.0000 TDB 
 X = 4.338752835217786E+08 Y = 1.089243005728795E+08 Z = 9.927413930626065E+06
 VX= 3.640846407120995E-02 VY= 1.551657938553371E+01 VZ= 3.489963418103530E+00
$$EOE
*******************************************************************************
 
TIME

  Barycentric Dynamical Time ("TDB" or T_eph) output was requested. This
continuous coordinate time is equivalent to the relativistic proper time
of a clock at rest in a reference frame co-moving with the solar system
barycenter but outside the system's gravity well. It is the independent
variable in the solar system relativistic equations of motion.

  TDB runs at a uniform rate of one SI second per second and is independent
of irregularities in Earth's rotation.
 
CALENDAR SYSTEM

  Mixed calendar mode was active such that calendar dates after AD 1582-Oct-15
(if any) are in the modern Gregorian system. Dates prior to 1582-Oct-5 (if any)
are in the Julian calendar system, which is automatically extended for dates
prior to its adoption on 45-Jan-1 BC.  The Julian calendar is useful for
matching historical dates. The Gregorian calendar more accurately corresponds
to the Earth's orbital motion and seasons. A "Gregorian-only" calendar mode is
available if such physical events are the primary interest.

REFERENCE FRAME AND COORDINATES

  Ecliptic at the standard reference epoch

    Reference epoch: J2000.0
    X-Y plane: adopted Earth orbital plane at the reference epoch
               Note: IAU76 obliquity of 84381.448 arcseconds wrt ICRF X-Y plane
    X-axis   : ICRF
    Z-axis   : perpendicular to the X-Y plane in the directional (+ or -) sense
               of Earth's north pole at the reference epoch.

  Symbol meaning:

    JDTDB    Julian Day Number, Barycentric Dynamical Time
      X      X-component of position vector (km)
      Y      Y-component of position vector (km)
      Z      Z-component of position vector (km)
      VX     X-component of velocity vector (km/sec)                           
      VY     Y-component of velocity vector (km/sec)                           
      VZ     Z-component of velocity vector (km/sec)                           

ABERRATIONS AND CORRECTIONS

 Geometric state vectors have NO corrections or aberrations applied.

Computations by ...

    Solar System Dynamics Group, Horizons On-Line Ephemeris System
    4800 Oak Grove Drive, Jet Propulsion Laboratory
    Pasadena, CA  91109   USA

    General site: https://ssd.jpl.nasa.gov/
    Mailing list: https://ssd.jpl.nasa.gov/email_list.html
    System news : https://ssd.jpl.nasa.gov/horizons/news.html
    User Guide  : https://ssd.jpl.nasa.gov/horizons/manual.html
    Connect     : browser        https://ssd.jpl.nasa.gov/horizons/app.html#/x
                  API            https://ssd-api.jpl.nasa.gov/doc/horizons.html
                  command-line   telnet ssd.jpl.nasa.gov 6775
                  e-mail/batch   https://ssd.jpl.nasa.gov/ftp/ssd/hrzn_batch.txt
                  scripts        https://ssd.jpl.nasa.gov/ftp/ssd/SCRIPTS
    Author      : Jon.D.Giorgini@jpl.nasa.gov
*******************************************************************************
